NORAD_CAT_ID,OBJECT_NAME,OBJECT_TYPE,EPOCH,MEAN_MOTION,ECCENTRICITY,INCLINATION,RA_OF_ASC_NODE,ARG_OF_PERICENTER,MEAN_ANOMALY,BSTAR,MEAN_MOTION_DOT,MEAN_MOTION_DDOT,TLE_LINE0,TLE_LINE1,TLE_LINE2,SEMIMAJOR_AXIS,PERIOD,APOGEE,PERIGEE,DECAYED
52367.0,STARLINK-3817,PAYLOAD,2023-10-12 20:12:58,15.08853703,0.0001048,53.2176,174.4202,99.0435,261.0676,0.0010394,0.00016299,0.0,0 STARLINK-3817,1 52367U 22045AN  23285.84234157  .00016299  00000-0  10394-2 0  9996,2 52367  53.2176 174.4202 0001048  99.0435 261.0676 15.08853703 83247,6917.839,95.437,540.428,538.979,0.0
52367.0,STARLINK-3817,PAYLOAD,2023-10-12 21:48:21,15.0886264,0.0001265,53.2172,174.1227,102.5268,257.5866,0.0011624,0.00018271,0.0,0 STARLINK-3817,1 52367U 22045AN  23285.90858024  .00018271  00000-0  11624-2 0  9997,2 52367  53.2172 174.1227 0001265 102.5268 257.5866 15.08862640 83254,6917.811,95.436,540.551,538.801,0.0
52367.0,STARLINK-3817,PAYLOAD,2023-10-12 23:23:44,15.08864134,0.0001263,53.2168,173.8262,89.6124,270.5013,0.0016308,0.00025779,0.0,0 STARLINK-3817,1 52367U 22045AN  23285.97482046  .00025779  00000-0  16308-2 0  9996,2 52367  53.2168 173.8262 0001263  89.6124 270.5013 15.08864134 83268,6917.807,95.436,540.545,538.798,0.0
52367.0,STARLINK-3817,PAYLOAD,2023-10-13 20:03:45,15.08866903,0.0001423,53.2176,169.9614,106.7343,253.3806,0.0018582,0.00029431,0.0,0 STARLINK-3817,1 52367U 22045AN  23286.83593861  .00029431  00000-0  18582-2 0  9995,2 52367  53.2176 169.9614 0001423 106.7343 253.3806 15.08866903 83395,6917.798,95.436,540.648,538.679,0.0
52367.0,STARLINK-3817,PAYLOAD,2023-10-13 21:39:08,15.08872259,0.0001342,53.2174,169.6642,109.3128,250.8009,0.0020927,0.00033204,0.0,0 STARLINK-3817,1 52367U 22045AN  23286.90217728  .00033204  00000-0  20927-2 0  9997,2 52367  53.2174 169.6642 0001342 109.3128 250.8009 15.08872259 83401,6917.782,95.436,540.575,538.718,0.0
52367.0,STARLINK-3817,PAYLOAD,2023-10-14 08:46:50,15.08845776,0.000135,53.2168,167.5822,83.3443,276.7702,0.00097648,0.00015289,0.0,0 STARLINK-3817,1 52367U 22045AN  23287.36585928  .00015289  00000-0  97648-3 0  9996,2 52367  53.2168 167.5822 0001350  83.3443 276.7702 15.08845776 83479,6917.863,95.437,540.662,538.794,0.0
52367.0,STARLINK-3817,PAYLOAD,2023-10-14 19:54:32,15.08837292,0.0001394,53.2166,165.5014,93.1309,266.9843,0.00017871,2.557e-05,0.0,0 STARLINK-3817,1 52367U 22045AN  23287.82954304  .00002557  00000-0  17871-3 0  9999,2 52367  53.2166 165.5014 0001394  93.1309 266.9843 15.08837292 83545,6917.889,95.438,540.718,538.789,0.0
52367.0,STARLINK-3817,PAYLOAD,2023-10-14 21:29:55,15.08839005,0.0001417,53.2166,165.204,94.0173,266.0981,0.00030858,4.626e-05,0.0,0 STARLINK-3817,1 52367U 22045AN  23287.89578320  .00004626  00000-0  30858-3 0  9995,2 52367  53.2166 165.2040 0001417  94.0173 266.0981 15.08839005 83555,6917.883,95.438,540.729,538.768,0.0
52367.0,STARLINK-3817,PAYLOAD,2023-10-15 08:37:37,15.08841017,0.0001383,53.216,163.1232,96.3819,263.733,0.00089105,0.00013922,0.0,0 STARLINK-3817,1 52367U 22045AN  23288.35946611  .00013922  00000-0  89105-3 0  9997,2 52367  53.2160 163.1232 0001383  96.3819 263.7330 15.08841017 83629,6917.877,95.437,540.699,538.786,0.0
52367.0,STARLINK-3817,PAYLOAD,2023-10-15 21:20:43,15.08840671,0.0001356,53.2157,160.7432,96.486,263.6286,0.00038081,5.778e-05,0.0,0 STARLINK-3817,1 52367U 22045AN  23288.88938691  .00005778  00000-0  38081-3 0  9991,2 52367  53.2157 160.7432 0001356  96.4860 263.6286 15.08840671 83700,6917.878,95.438,540.681,538.805,0.0
52367.0,STARLINK-3817,PAYLOAD,2023-10-16 00:31:29,15.08846895,0.0001386,53.2154,160.1493,98.7011,261.4138,0.00059472,9.191e-05,0.0,0 STARLINK-3817,1 52367U 22045AN  23289.02186593  .00009191  00000-0  59472-3 0  9994,2 52367  53.2154 160.1493 0001386  98.7011 261.4138 15.08846895 83722,6917.859,95.437,540.683,538.765,0.0
52367.0,STARLINK-3817,PAYLOAD,2023-10-16 18:00:43,15.08844585,0.0001364,53.2147,156.8778,100.0438,260.0708,0.0002284,3.349e-05,0.0,0 STARLINK-3817,1 52367U 22045AN  23289.75050469  .00003349  00000-0  22840-3 0  9994,2 52367  53.2147 156.8778 0001364 100.0438 260.0708 15.08844585 83832,6917.866,95.437,540.675,538.788,0.0
52367.0,STARLINK-3817,PAYLOAD,2023-10-17 08:19:11,15.08845354,7.87e-05,53.2146,154.1994,102.4835,257.6245,7.077e-05,8.39e-06,0.0,0 STARLINK-3817,1 52367U 22045AN  23290.34665919  .00000839  00000-0  70770-4 0  9990,2 52367  53.2146 154.1994 0000787 102.4835 257.6245 15.08845354 83920,6917.864,95.437,540.273,539.185,0.0
52367.0,STARLINK-3817,PAYLOAD,2023-10-17 21:02:16,15.08848853,0.0001504,53.2155,151.8214,87.4555,272.661,0.00022386,3.277e-05,0.0,0 STARLINK-3817,1 52367U 22045AN  23290.87658206  .00003277  00000-0  22386-3 0  9997,2 52367  53.2155 151.8214 0001504  87.4555 272.6610 15.08848853 84008,6917.853,95.437,540.759,538.678,0.0
52367.0,STARLINK-3817,PAYLOAD,2023-10-18 08:09:58,15.08845305,0.0001559,53.2161,149.7389,92.8126,267.3045,0.00016411,2.325e-05,0.0,0 STARLINK-3817,1 52367U 22045AN  23291.34026374  .00002325  00000-0  16411-3 0  9990,2 52367  53.2161 149.7389 0001559  92.8126 267.3045 15.08845305 84077,6917.864,95.437,540.808,538.651,0.0
52367.0,STARLINK-3817,PAYLOAD,2023-10-18 20:53:04,15.08844374,0.0004375,53.2112,147.3622,91.5203,268.6291,0.00010666,1.409e-05,0.0,0 STARLINK-3817,1 52367U 22045AN  23291.87018898  .00001409  00000-0  10666-3 0  9998,2 52367  53.2112 147.3622 0004375  91.5203 268.6291 15.08844374 84159,6917.867,95.437,542.759,536.705,0.0
52367.0,STARLINK-3817,PAYLOAD,2023-10-19 20:43:51,15.08827006,0.0004349,53.2033,142.899,93.514,266.6349,-9.8941e-05,-1.863e-05,0.0,0 STARLINK-3817,1 52367U 22045AN  23292.86379149 -.00001863  00000-0 -98941-4 0  9996,2 52367  53.2033 142.8990 0004349  93.5140 266.6349 15.08827006 84304,6917.92,95.438,542.794,536.777,0.0
52367.0,STARLINK-3817,PAYLOAD,2023-10-19 23:54:37,15.08833894,0.0004397,53.2102,142.3066,93.8551,266.2944,7.3295e-05,8.77e-06,0.0,0 STARLINK-3817,1 52367U 22045AN  23292.99626981  .00000877  00000-0  73295-4 0  9996,2 52367  53.2102 142.3066 0004397  93.8551 266.2944 15.08833894 84323,6917.899,95.438,542.806,536.722,0.0
52367.0,STARLINK-3817,PAYLOAD,2023-10-20 14:13:05,15.0884218,0.0002502,53.2124,139.6285,87.3826,272.7452,1.6009e-05,-3.4e-07,0.0,0 STARLINK-3817,1 52367U 22045AN  23293.59242022 -.00000034  00000-0  16009-4 0  9999,2 52367  53.2124 139.6285 0002502  87.3826 272.7452 15.08842180 84412,6917.874,95.437,541.47,538.008,0.0
52367.0,STARLINK-3817,PAYLOAD,2023-10-20 20:34:37,15.08838468,0.0001257,53.2157,138.4397,97.1738,262.9397,-2.9345e-05,-7.55e-06,0.0,0 STARLINK-3817,1 52367U 22045AN  23293.85738250 -.00000755  00000-0 -29345-4 0  9999,2 52367  53.2157 138.4397 0001257  97.1738 262.9397 15.08838468 84453,6917.885,95.438,540.62,538.88,0.0
52367.0,STARLINK-3817,PAYLOAD,2023-10-20 23:45:24,15.08837621,0.0001453,53.2155,137.8453,98.5936,261.522,3.8024e-06,-2.27e-06,0.0,0 STARLINK-3817,1 52367U 22045AN  23293.98986325 -.00000227  00000-0  38024-5 0  9999,2 52367  53.2155 137.8453 0001453  98.5936 261.5220 15.08837621 84472,6917.888,95.438,540.758,538.747,0.0
52367.0,STARLINK-3817,PAYLOAD,2023-10-21 20:25:24,15.08846453,0.0001299,53.2157,133.9797,92.8784,267.2356,0.00018963,2.732e-05,0.0,0 STARLINK-3817,1 52367U 22045AN  23294.85098185  .00002732  00000-0  18963-3 0  9994,2 52367  53.2157 133.9797 0001299  92.8784 267.2356 15.08846453 84609,6917.861,95.437,540.624,538.827,0.0
52367.0,STARLINK-3817,PAYLOAD,2023-10-22 05:57:43,15.08838046,0.0001549,53.2162,132.1945,91.0005,269.1164,0.00013378,1.842e-05,0.0,0 STARLINK-3817,1 52367U 22045AN  23295.24842556  .00001842  00000-0  13378-3 0  9993,2 52367  53.2162 132.1945 0001549  91.0005 269.1164 15.08838046 84669,6917.886,95.438,540.823,538.68,0.0
52367.0,STARLINK-3817,PAYLOAD,2023-10-22 20:16:12,15.08831544,0.0001363,53.2168,129.521,92.4347,267.6801,-3.112e-06,-3.37e-06,0.0,0 STARLINK-3817,1 52367U 22045AN  23295.84459019 -.00000337  00000-0 -31120-5 0  9994,2 52367  53.2168 129.5210 0001363  92.4347 267.6801 15.08831544 84755,6917.906,95.438,540.714,538.828,0.0
52367.0,STARLINK-3817,PAYLOAD,2023-10-23 20:07:01,15.08800362,0.0001463,53.216,125.0589,113.1118,247.0029,0.0013782,0.0002169,0.0,0 STARLINK-3817,1 52367U 22045AN  23296.83821162  .00021690  00000-0  13782-2 0  9990,2 52367  53.2160 125.0589 0001463 113.1118 247.0029 15.08800362 84900,6918.002,95.44,540.879,538.854,0.0
52367.0,STARLINK-3817,PAYLOAD,2023-10-23 21:42:22,15.088429,0.0001364,53.2159,124.7613,100.0919,260.0227,0.00016433,2.329e-05,0.0,0 STARLINK-3817,1 52367U 22045AN  23296.90442862  .00002329  00000-0  16433-3 0  9999,2 52367  53.2159 124.7613 0001364 100.0919 260.0227 15.08842900 84916,6917.872,95.437,540.68,538.793,0.0
52367.0,STARLINK-3817,PAYLOAD,2023-10-24 04:03:55,15.08841619,0.0001352,53.2158,123.5715,99.5498,260.5647,6.206e-05,7e-06,0.0,0 STARLINK-3817,1 52367U 22045AN  23297.16938881  .00000700  00000-0  62060-4 0  9998,2 52367  53.2158 123.5715 0001352  99.5498 260.5647 15.08841619 84957,6917.875,95.437,540.676,538.805,0.0
52367.0,STARLINK-3817,PAYLOAD,2023-10-24 13:36:14,15.08838287,0.0001344,53.2158,121.7874,101.9494,258.1648,0.00017796,2.545e-05,0.0,0 STARLINK-3817,1 52367U 22045AN  23297.56683221  .00002545  00000-0  17796-3 0  9991,2 52367  53.2158 121.7874 0001344 101.9494 258.1648 15.08838287 85017,6917.886,95.438,540.68,538.821,0.0
52367.0,STARLINK-3817,PAYLOAD,2023-10-25 13:27:01,15.08839445,0.0001314,53.216,117.3268,97.3476,262.7666,9.1968e-05,1.176e-05,0.0,0 STARLINK-3817,1 52367U 22045AN  23298.56043320  .00001176  00000-0  91968-4 0  9995,2 52367  53.2160 117.3268 0001314  97.3476 262.7666 15.08839445 85167,6917.882,95.438,540.656,538.838,0.0
52367.0,STARLINK-3817,PAYLOAD,2023-10-25 21:23:56,15.08842491,0.0001314,53.2161,115.8402,96.4009,263.7133,9.7148e-05,1.259e-05,0.0,0 STARLINK-3817,1 52367U 22045AN  23298.89163178  .00001259  00000-0  97148-4 0  9993,2 52367  53.2161 115.8402 0001314  96.4009 263.7133 15.08842491 85214,6917.873,95.437,540.647,538.829,0.0
